55145,ONEWEB-0560,2023,109.2,148.0,+,87.91,Active,1,LEO,USA,UK,Commercial,Communications,Falcon,1 55145U 23004F   24289.48392367 -.00000139  00000+0 -38541-3 0  9994,2 55145  87.9056  96.8298 0002014  86.9196 273.2167 13.18684752 89353,13.18684752,0.0002014,LEO
55146,ONEWEB-0565,2023,109.2,148.0,+,87.91,Active,1,LEO,USA,UK,Commercial,Communications,Falcon,1 55146U 23004G   24289.47760073  .00000127  00000+0  28971-3 0  9998,2 55146  87.9052  96.9038 0001875  70.2695 289.8639 13.18688328 89346,13.18688328,0.0001875,LEO
55147,ONEWEB-0567,2023,109.2,148.0,+,87.91,Active,1,LEO,USA,UK,Commercial,Communications,Falcon,1 55147U 23004H   24289.47128186 -.00000231  00000+0 -61952-3 0  9996,2 55147  87.9052  96.8594 0002009  77.9755 282.1602 13.18685848 89344,13.18685848,0.0002009,LEO
55148,ONEWEB-0569,2023,109.63,148.0,+,87.89,Active,1,LEO,USA,UK,Commercial,Communications,Falcon,1 55148U 23004J   24289.51024078  .00000182  00000+0  46454-3 0  9990,2 55148  87.8875  81.4879 0002585  78.1943 281.9476 13.13472588 90140,13.13472588,0.0002585,LEO
55149,ONEWEB-0570,2023,109.2,148.0,+,87.91,Active,1,LEO,USA,UK,Commercial,Communications,Falcon,1 55149U 23004K   24289.45862836  .00000118  00000+0  26686-3 0  9990,2 55149  87.9058  96.8614 0001199  60.4287 299.6964 13.18688394 89333,13.18688394,0.0001199,LEO
55150,ONEWEB-0571,2023,109.2,148.0,+,87.91,Active,1,LEO,USA,UK,Commercial,Communications,Falcon,1 55150U 23004L   24289.52818495  .00000077  00000+0  16141-3 0  9991,2 55150  87.9057  96.8544 0002176  61.0866 299.0484 13.18687974 89358,13.18687974,0.0002176,LEO
55151,ONEWEB-0572,2023,109.29,148.0,+,87.91,Active,1,LEO,USA,UK,Commercial,Communications,Falcon,1 55151U 23004M   24289.52408932  .00000041  00000+0  71538-4 0  9996,2 55151  87.9084 127.3184 0001598  74.9896 285.1412 13.17649095 87190,13.17649095,0.0001598,LEO
55152,ONEWEB-0573,2023,109.2,148.0,+,87.9,Active,1,LEO,USA,UK,Commercial,Communications,Falcon,1 55152U 23004N   24289.52186253  .00000044  00000+0  79466-4 0  9997,2 55152  87.9051  96.8710 0001900  57.7782 302.3534 13.18687465 89340,13.18687465,0.00019,LEO
